{"type": "FeatureCollection", "features": [ {"type": "Feature", "properties": {"norad_id": 44506, "name": "GPS BIII-2  (PRN 18)", "group": "gnss", "lat": 53.060338620748055, "lon": 93.23201588563066, "alt_km": 20185.322772824573, "timestamp": "2025-12-17T19:34:08.282267+00:00", "meta": {"OBJECT_NAME": "GPS BIII-2  (PRN 18)", "OBJECT_ID": "2019-056A", "EPOCH": "2025-12-17T03:59:08.759040", "MEAN_MOTION": 2.00566605, "ECCENTRICITY": 0.00577134, "INCLINATION": 55.7199, "RA_OF_ASC_NODE": 338.3768, "ARG_OF_PERICENTER": 198.5058, "MEAN_ANOMALY": 157.947, "EPHEMERIS_TYPE": 0, "CLASSIFICATION_TYPE": "U", "NORAD_CAT_ID": 44506, "ELEMENT_SET_NO": 999, "REV_AT_EPOCH": 4641, "BSTAR": 0, "MEAN_MOTION_DOT": -8.7e-07, "MEAN_MOTION_DDOT": 0}, "tle": {"line1": "1 44506U 19056A   25351.16607360 -.00000087  00000+0  00000+0 0  9999", "line2": "2 44506  55.7199 338.3768 0057713 198.5058 157.9470  2.00566605 46412"}}, "geometry": {"type": "Point", "coordinates": [93.23201588563066, 53.060338620748055]}}, {"type": "Feature", "properties": {"norad_id": 44542, "name": "BEIDOU-3 M24 (C46)", "group": "gnss", "lat": 33.527905467724615, "lon": -142.79664592627276, "alt_km": 21498.591387687917, "timestamp": "2025-12-17T19:34:08.282280+00:00", "meta": {"OBJECT_NAME": "BEIDOU-3 M24 (C46)", "OBJECT_ID": "2019-061A", "EPOCH": "2025-12-16T03:22:44.327712", "MEAN_MOTION": 1.86229353, "ECCENTRICITY": 0.00096014, "INCLINATION": 54.4001, "RA_OF_ASC_NODE": 188.9011, "ARG_OF_PERICENTER": 24.8001, "MEAN_ANOMALY": 335.316, "EPHEMERIS_TYPE": 0, "CLASSIFICATION_TYPE": "U", "NORAD_CAT_ID": 44542, "ELEMENT_SET_NO": 999, "REV_AT_EPOCH": 4238, "BSTAR": 0, "MEAN_MOTION_DOT": 1.15e-06, "MEAN_MOTION_DDOT": 0}, "tle": {"line1": "1 44542U 19061A   25350.14079083  .00000115  00000+0  00000+0 0  9998", "line2": "2 44542  54.4001 188.9011 0009601  24.8001 335.3160  1.86229353 42381"}}, "geometry": {"type": "Point", "coordinates": [-142.79664592627276, 33.527905467724615]}}, {"type": "Feature", "properties": {"norad_id": 44543, "name": "BEIDOU-3 M23 (C45)", "group": "gnss", "lat": -34.76885602668828, "lon": 158.9799802863276, "alt_km": 21526.57417444669, "timestamp": "2025-12-17T19:34:08.282291+00:00", "meta": {"OBJECT_NAME": "BEIDOU-3 M23 (C45)", "OBJECT_ID": "2019-061B", "EPOCH": "2025-12-16T19:20:04.225344", "MEAN_MOTION": 1.86227685, "ECCENTRICITY": 0.00060954, "INCLINATION": 54.399, "RA_OF_ASC_NODE": 188.847, "ARG_OF_PERICENTER": 24.4715, "MEAN_ANOMALY": 334.1063, "EPHEMERIS_TYPE": 0, "CLASSIFICATION_TYPE": "U", "NORAD_CAT_ID": 44543, "ELEMENT_SET_NO": 999, "REV_AT_EPOCH": 4239, "BSTAR": 0, "MEAN_MOTION_DOT": 1.15e-06, "MEAN_MOTION_DDOT": 0}, "tle": {"line1": "1 44543U 19061B   25350.80560446  .00000115  00000+0  00000+0 0  9990", "line2": "2 44543  54.3990 188.8470 0006095  24.4715 334.1063  1.86227685 42394"}}, "geometry": {"type": "Point", "coordinates": [158.9799802863276, -34.76885602668828]}}, {"type": "Feature", "properties": {"norad_id": 44624, "name": "EUTELSAT 5 WEST B (EGNOS/PRN 121)", "group": "gnss", "lat": 0.06586946702914323, "lon": 15.261376624027118, "alt_km": 35789.952290590336, "timestamp": "2025-12-17T19:34:08.282302+00:00", "meta": {"OBJECT_NAME": "EUTELSAT 5 WEST B (EGNOS/PRN 121)", "OBJECT_ID": "2019-067A", "EPOCH": "2025-12-17T04:44:26.920320", "MEAN_MOTION": 1.00273488, "ECCENTRICITY": 0.00031861, "INCLINATION": 0.0711, "RA_OF_ASC_NODE": 328.9443, "ARG_OF_PERICENTER": 297.4561, "MEAN_ANOMALY": 245.8033, "EPHEMERIS_TYPE": 0, "CLASSIFICATION_TYPE": "U", "NORAD_CAT_ID": 44624, "ELEMENT_SET_NO": 999, "REV_AT_EPOCH": 2261, "BSTAR": 0, "MEAN_MOTION_DOT": -1.7e-07, "MEAN_MOTION_DDOT": 0}, "tle": {"line1": "1 44624U 19067A   25351.19753380 -.00000017  00000+0  00000+0 0  9992", "line2": "2 44624   0.0711 328.9443 0003186 297.4561 245.8033  1.00273488 22615"}}, "geometry": {"type": "Point", "coordinates": [15.261376624027118, 0.06586946702914323]}}, {"type": "Feature", "properties": {"norad_id": 44709, "name": "BEIDOU-3 IGSO-3 (C40)", "group": "gnss", "lat": -24.41101738995628, "lon": 121.24276547705138, "alt_km": 35619.34335118344, "timestamp": "2025-12-17T19:34:08.282314+00:00", "meta": {"OBJECT_NAME": "BEIDOU-3 IGSO-3 (C40)", "OBJECT_ID": "2019-073A", "EPOCH": "2025-11-20T07:11:22.740000", "MEAN_MOTION": 1.00250097, "ECCENTRICITY": 0.0044538, "INCLINATION": 55.163, "RA_OF_ASC_NODE": 283.159, "ARG_OF_PERICENTER": 191.5856, "MEAN_ANOMALY": 168.2409, "EPHEMERIS_TYPE": 0, "CLASSIFICATION_TYPE": "U", "NORAD_CAT_ID": 44709, "ELEMENT_SET_NO": 999, "REV_AT_EPOCH": 2236, "BSTAR": 0, "MEAN_MOTION_DOT": -2.06e-06, "MEAN_MOTION_DDOT": 0}, "tle": {"line1": "1 44709U 19073A   25324.29956875 -.00000206  00000+0  00000+0 0  9998", "line2": "2 44709  55.1630 283.1590 0044538 191.5856 168.2409  1.00250097 22360"}}, "geometry": {"type": "Point", "coordinates": [121.24276547705138, -24.41101738995628]}}, {"type": "Feature", "properties": {"norad_id": 44793, "name": "BEIDOU-3 M22 (C44)", "group": "gnss", "lat": 23.797971119729272, "lon": 107.57287187944992, "alt_km": 21534.72932672038, "timestamp": "2025-12-17T19:34:08.282329+00:00", "meta": {"OBJECT_NAME": "BEIDOU-3 M22 (C44)", "OBJECT_ID": "2019-078A", "EPOCH": "2025-12-17T01:18:45.560736", "MEAN_MOTION": 1.86231936, "ECCENTRICITY": 0.00058159, "INCLINATION": 54.1041, "RA_OF_ASC_NODE": 306.2341, "ARG_OF_PERICENTER": 23.4799, "MEAN_ANOMALY": 336.5334, "EPHEMERIS_TYPE": 0, "CLASSIFICATION_TYPE": "U", "NORAD_CAT_ID": 44793, "ELEMENT_SET_NO": 999, "REV_AT_EPOCH": 4125, "BSTAR": 0, "MEAN_MOTION_DOT": -9.2e-07, "MEAN_MOTION_DDOT": 0}, "tle": {"line1": "1 44793U 19078A   25351.05469399 -.00000092  00000+0  00000+0 0  9993", "line2": "2 44793  54.1041 306.2341 0005815  23.4799 336.5334  1.86231936 41254"}}, "geometry": {"type": "Point", "coordinates": [107.57287187944992, 23.797971119729272]}}, {"type": "Feature", "properties": {"norad_id": 44794, "name": "BEIDOU-3 M21 (C43)", "group": "gnss", "lat": 43.185262265462804, "lon": -11.018847680586367, "alt_km": 21515.155638338416, "timestamp": "2025-12-17T19:34:08.282342+00:00", "meta": {"OBJECT_NAME": "BEIDOU-3 M21 (C43)", "OBJECT_ID": "2019-078B", "EPOCH": "2025-12-16T15:43:55.727904", "MEAN_MOTION": 1.86227668, "ECCENTRICITY": 0.00041169, "INCLINATION": 54.078, "RA_OF_ASC_NODE": 306.2132, "ARG_OF_PERICENTER": 11.942, "MEAN_ANOMALY": 348.0544, "EPHEMERIS_TYPE": 0, "CLASSIFICATION_TYPE": "U", "NORAD_CAT_ID": 44794, "ELEMENT_SET_NO": 999, "REV_AT_EPOCH": 4125, "BSTAR": 0, "MEAN_MOTION_DOT": -9.5e-07, "MEAN_MOTION_DDOT": 0}, "tle": {"line1": "1 44794U 19078B   25350.65550611 -.00000095  00000+0  00000+0 0  9990", "line2": "2 44794  54.0780 306.2132 0004116  11.9420 348.0544  1.86227668 41256"}}, "geometry": {"type": "Point", "coordinates": [-11.018847680586367, 43.185262265462804]}}, {"type": "Feature", "properties": {"norad_id": 44850, "name": "COSMOS 2544 (759)", "group": "gnss", "lat": -52.465025668625074, "lon": 43.38959391914142, "alt_km": 19113.03267172237, "timestamp": "2025-12-17T19:34:08.282353+00:00", "meta": {"OBJECT_NAME": "COSMOS 2544 (759)", "OBJECT_ID": "2019-088A", "EPOCH": "2025-12-16T00:24:58.723776", "MEAN_MOTION": 2.13101973, "ECCENTRICITY": 0.00138315, "INCLINATION": 65.4622, "RA_OF_ASC_NODE": 79.8485, "ARG_OF_PERICENTER": 249.722, "MEAN_ANOMALY": 110.1429, "EPHEMERIS_TYPE": 0, "CLASSIFICATION_TYPE": "U", "NORAD_CAT_ID": 44850, "ELEMENT_SET_NO": 999, "REV_AT_EPOCH": 4681, "BSTAR": 0, "MEAN_MOTION_DOT": -5.5e-07, "MEAN_MOTION_DDOT": 0}, "tle": {"line1": "1 44850U 19088A   25350.01734634 -.00000055  00000+0  00000+0 0  9999", "line2": "2 44850  65.4622  79.8485 0013831 249.7220 110.1429  2.13101973 46815"}}, "geometry": {"type": "Point", "coordinates": [43.38959391914142, -52.465025668625074]}}, {"type": "Feature", "properties": {"norad_id": 44864, "name": "BEIDOU-3 M19 (C41)", "group": "gnss", "lat": -52.94809319372927, "lon": -49.637958717775476, "alt_km": 21491.44795577037, "timestamp": "2025-12-17T19:34:08.282364+00:00", "meta": {"OBJECT_NAME": "BEIDOU-3 M19 (C41)", "OBJECT_ID": "2019-090A", "EPOCH": "2025-12-14T04:04:53.318784", "MEAN_MOTION": 1.86231555, "ECCENTRICITY": 0.00179181, "INCLINATION": 56.3949, "RA_OF_ASC_NODE": 68.9134, "ARG_OF_PERICENTER": 285.3736, "MEAN_ANOMALY": 44.0547, "EPHEMERIS_TYPE": 0, "CLASSIFICATION_TYPE": "U", "NORAD_CAT_ID": 44864, "ELEMENT_SET_NO": 999, "REV_AT_EPOCH": 4078, "BSTAR": 0, "MEAN_MOTION_DOT": -8.2e-07, "MEAN_MOTION_DDOT": 0}, "tle": {"line1": "1 44864U 19090A   25348.17006156 -.00000082  00000+0  00000+0 0  9992", "line2": "2 44864  56.3949  68.9134 0017918 285.3736  44.0547  1.86231555 40784"}}, "geometry": {"type": "Point", "coordinates": [-49.637958717775476, -52.94809319372927]}}, {"type": "Feature", "properties": {"norad_id": 44865, "name": "BEIDOU-3 M20 (C42)", "group": "gnss", "lat": -13.986215062209286, "lon": 59.322374919489654, "alt_km": 21500.491750622987, "timestamp": "2025-12-17T19:34:08.282378+00:00", "meta": {"OBJECT_NAME": "BEIDOU-3 M20 (C42)", "OBJECT_ID": "2019-090B", "EPOCH": "2025-12-14T14:16:43.218624", "MEAN_MOTION": 1.86231589, "ECCENTRICITY": 0.00151163, "INCLINATION": 56.3967, "RA_OF_ASC_NODE": 68.9336, "ARG_OF_PERICENTER": 297.6834, "MEAN_ANOMALY": 46.2212, "EPHEMERIS_TYPE": 0, "CLASSIFICATION_TYPE": "U", "NORAD_CAT_ID": 44865, "ELEMENT_SET_NO": 999, "REV_AT_EPOCH": 4077, "BSTAR": 0, "MEAN_MOTION_DOT": -8.3e-07, "MEAN_MOTION_DDOT": 0}, "tle": {"line1": "1 44865U 19090B   25348.59494466 -.00000083  00000+0  00000+0 0  9995", "line2": "2 44865  56.3967  68.9336 0015116 297.6834  46.2212  1.86231589 40771"}}, "geometry": {"type": "Point", "coordinates": [59.322374919489654, -13.986215062209286]}}]}